#aV2020  5 11  0  0  0.00000000     288 DD+AD WGS84 FIT  NGA
## 2105  86400.00000000   300.00000000 58980 0.0000000000000
+   32     1  2  3  4  5  6  7  8  9 10 11 12 13 14 15 16 17
+         18 19 20 21 22 23 24 25 26 27 28 29 30 31 32  0  0
+          0  0  0  0  0  0  0  0  0  0  0  0  0  0  0  0  0
+          0  0  0  0  0  0  0  0  0  0  0  0  0  0  0  0  0
+          0  0  0  0  0  0  0  0  0  0  0  0  0  0  0  0  0
++         2  2  2  2  2  2  2  2  2  2  2  2  2  2  2  2  2
++         2  2  2  2  2  2  2  2  2  2  2  2  2  2  2  0  0
++         0  0  0  0  0  0  0  0  0  0  0  0  0  0  0  0  0
++         0  0  0  0  0  0  0  0  0  0  0  0  0  0  0  0  0
++         0  0  0  0  0  0  0  0  0  0  0  0  0  0  0  0  0
%c cc cc ccc ccc cccc cccc cccc cccc ccccc ccccc ccccc ccccc
%c cc cc ccc ccc cccc cccc cccc cccc ccccc ccccc ccccc ccccc
%f  0.0000000  0.000000000  0.00000000000  0.000000000000000
%f  0.0000000  0.000000000  0.00000000000  0.000000000000000
%i    0    0    0    0      0      0      0      0         0
%i    0    0    0    0      0      0      0      0         0
/*      NGA, ST. LOUIS,MO.                                  
/*   EPHEMERIS COMPUTED FROM 2 DAYS OF DATA                 
/*   EPOCHA v5 SMOOTHER                                     
/*   G1762 IERS2010 SATAF SATAPC                            
*  2020  5 11  1 35  0.00000000
P  1    970.657444  15020.306151 -22077.459003   -377.537972                    
V  1 -26723.867643   6403.171411   3541.754691     -0.071305                    
P  2  19814.290901 -14534.241529  10640.349308   -453.841464                    
V  2  12709.361215  -1740.640567 -27778.140086     -0.062325                    
P  3   9837.484056  21697.373276 -11905.779541   -171.803251                    
V  3 -12063.866496  -9147.063604 -26665.445968     -0.119793                    
P  4   1362.471005  23710.601261  11872.264324    -87.696471                    
V  4  -6760.203339  13683.490274 -26606.645250     -0.050240                    
P  5   9147.251963 -12405.661393  21485.006626    -12.437415                    
V  5  20257.719745  18814.605491   2420.152993     -0.006983                    
P  6  25651.550710  -6973.770150    345.503069   -269.252844                    
V  6    911.370814   2010.254371 -32138.550925     -0.069537                    
P  7  19274.274529   7723.169525  17135.433773   -278.282653                    
V  7 -20019.381660   6553.759015  19435.392037     -0.086783                    
P  8  -6126.400059  25688.422402   -722.276537    -33.551678                    
V  8  -2907.874702    219.599114  32102.377803     -0.013006                    
P  9   9976.461402  15537.767619  19037.216816   -214.886641                    
V  9  -7507.438245  23167.196067 -14952.552606     -0.073625                    
P 10 -21357.437029  -8056.304123 -13686.322495   -337.155002                    
V 10 -10893.893455 -13742.054428  24697.336166     -0.116646                    
P 11  -6962.432684  21397.978870 -14832.949354   -280.825740                    
V 11 -15345.795612   9844.381045  21832.106703      0.106947                    
P 12  -7524.868343 -22155.481027 -12957.716728    119.362456                    
V 12  11662.608709  11045.719325 -25982.022087     -0.043836                    
P 13  13276.687629 -22290.401968   5334.886777      8.997074                    
V 13   -256.264812   7409.449754  31000.204046      0.030309                    
P 14 -16647.945130  11511.545797 -16751.943730    -13.833876                    
V 14   5632.947918 -21376.879475 -20061.578418      0.025778                    
P 15   3015.544019 -26141.993622  -1706.196892   -232.065338                    
V 15   4405.659537  -1133.410371  31153.154095      0.025976                    
P 16  -8700.199438  12297.901167  21612.014862   -156.713066                    
V 16 -18244.909828 -21200.726119   5104.894619     -0.045075                    
P 17  15407.236477  -1688.950913 -21141.889708    262.740766                    
V 17  -8309.850139  26516.130057  -8060.186255      0.060736                    
P 18 -18150.027444  -8258.789495  17563.883800    185.656063                    
V 18  21325.183051  -6656.601763  18870.820925      0.123041                    
P 19  16906.855220  -9624.946259 -18375.206588   -160.465803                    
V 19  -7165.350773  21542.940128 -18191.747401      0.050917                    
P 20 -22154.527971 -14635.831878  -2675.728248    527.713629                    
V 20   -494.076141  -4749.177953  30756.861181     -0.000681                    
P 21 -19402.416437  -6636.798265  17513.564006     -3.022073                    
V 21  19243.047416  -8319.811832  19274.589541      0.049790                    
P 22   2254.043440  19395.667026 -17841.065710   -782.690341                    
V 22 -18931.529149 -13481.944920 -16705.669930      0.011634                    
P 23  10637.999994  15168.536263  19287.670919   -115.207331                    
V 23  -7374.861685  22750.336449 -14501.036040      0.030706                    
P 24    303.494328 -16378.009804 -21049.771645    -12.865999                    
V 24  25392.943813  -7385.235515   6535.692584     -0.005174                    
P 25 -16115.548834 -20848.253664  -4565.003991      3.090160                    
V 25   5505.330850   2227.254537 -30994.814971      0.029786                    
P 26 -17383.047048   3225.573932  19848.545099    204.061856                    
V 26 -17552.386397 -18211.574282 -12169.806348      0.072101                    
P 27 -12373.817512  21277.159152   9384.811640   -290.361416                    
V 27    955.352039 -12388.598457  29243.711097     -0.102256                    
P 28  19868.975162   8596.138615 -14704.949502    718.455730                    
V 28  10997.310258  16500.742430  23721.835074     -0.030915                    
P 29  -6085.954286 -18567.174514  17935.421144   -101.457703                    
V 29   8688.157112 -21128.678701 -18899.247320     -0.088635                    
P 30  25408.602158    377.398816   8131.112872   -217.402781                    
V 30  -9321.472081   5243.708997  28810.810262     -0.082562                    
P 31 -25740.254962   7274.655943   1768.759939    -41.571277                    
V 31  -2776.352262  -1930.262121 -31294.705181     -0.024183                    
P 32 -16025.126569   3008.111570 -20857.880433    277.952001                    
V 32   6048.977494 -26037.681234  -8513.464161      0.077539                    
EOF
